start=new Date('2022-07-15T00:00:00.000Z').valueOf();
sats=[{"MEAN_MOTION_DDOT":"0.0000000000000","COUNTRY_CODE":"US","RCS_SIZE":null,"GP_ID":"208137934","MEAN_MOTION_DOT":"-0.01019440","PERIAPSIS":"315.172","INCLINATION":"53.2172","OBJECT_NAME":"STARLINK-4256","SEMIMAJOR_AXIS":"6700.855","APOAPSIS":"330.269","CLASSIFICATION_TYPE":"U","TLE_LINE2":"2 52994  53.2172 343.2568 0011265  51.7960  60.9377 15.82732034  1306","MEAN_MOTION":"15.82732034","ELEMENT_SET_NO":"999","REV_AT_EPOCH":"130","TLE_LINE1":"1 52994U 22076J   22195.91667824 -.01019440  00000-0 -52739-2 0  9997","CENTER_NAME":"EARTH","EPHEMERIS_TYPE":"0","OBJECT_TYPE":"PAYLOAD","REF_FRAME":"TEME","OBJECT_ID":"2022-076J","EPOCH":"2022-07-14T22:00:00.999936","RA_OF_ASC_NODE":"343.2568","ECCENTRICITY":"0.00112650","TIME_SYSTEM":"UTC","LAUNCH_DATE":"2022-07-07","BSTAR":"-0.00527390000000","MEAN_ANOMALY":"60.9377","DECAY_DATE":null,"ARG_OF_PERICENTER":"51.7960","FILE":"3513976","PERIOD":"90.982","SITE":"AFETR","NORAD_CAT_ID":"52994","MEAN_ELEMENT_THEORY":"SGP4"},{"BSTAR":"-0.00526090000000","LAUNCH_DATE":"2022-07-07","TIME_SYSTEM":"UTC","RA_OF_ASC_NODE":"343.2559","ECCENTRICITY":"0.00121720","NORAD_CAT_ID":"52995","SITE":"AFETR","MEAN_ELEMENT_THEORY":"SGP4","PERIOD":"90.980","ARG_OF_PERICENTER":"53.4740","FILE":"3513976","DECAY_DATE":null,"MEAN_ANOMALY":"59.9882","SEMIMAJOR_AXIS":"6700.769","OBJECT_NAME":"STARLINK-4296","PERIAPSIS":"314.478","INCLINATION":"53.2172","MEAN_MOTION_DOT":"-0.01019604","GP_ID":"208137467","RCS_SIZE":null,"COUNTRY_CODE":"US","MEAN_MOTION_DDOT":"0.0000000000000","EPOCH":"2022-07-14T22:00:00.999936","OBJECT_ID":"2022-076K","REF_FRAME":"TEME","OBJECT_TYPE":"PAYLOAD","TLE_LINE1":"1 52995U 22076K   22195.91667824 -.01019604  00000-0 -52609-2 0  9996","CENTER_NAME":"EARTH","EPHEMERIS_TYPE":"0","REV_AT_EPOCH":"130","ELEMENT_SET_NO":"999","MEAN_MOTION":"15.82762632","TLE_LINE2":"2 52995  53.2172 343.2559 0012172  53.4740  59.9882 15.82762632  1306","CLASSIFICATION_TYPE":"U","APOAPSIS":"330.790"},{"TIME_SYSTEM":"UTC","LAUNCH_DATE":"2022-07-07","BSTAR":"-0.00527270000000","ECCENTRICITY":"0.00110150","RA_OF_ASC_NODE":"343.2561","FILE":"3513976","ARG_OF_PERICENTER":"50.6717","SITE":"AFETR","MEAN_ELEMENT_THEORY":"SGP4","NORAD_CAT_ID":"52996","PERIOD":"90.981","MEAN_ANOMALY":"62.4252","DECAY_DATE":null,"MEAN_MOTION_DOT":"-0.01019620","PERIAPSIS":"315.296","OBJECT_NAME":"STARLINK-4295","INCLINATION":"53.2172","SEMIMAJOR_AXIS":"6700.811","MEAN_MOTION_DDOT":"0.0000000000000","COUNTRY_CODE":"US","RCS_SIZE":null,"GP_ID":"208138085","OBJECT_TYPE":"PAYLOAD","TLE_LINE1":"1 52996U 22076L   22195.91667824 -.01019620  00000-0 -52727-2 0  9996","CENTER_NAME":"EARTH","EPHEMERIS_TYPE":"0","REF_FRAME":"TEME","OBJECT_ID":"2022-076L","EPOCH":"2022-07-14T22:00:00.999936","APOAPSIS":"330.057","ELEMENT_SET_NO":"999","MEAN_MOTION":"15.82747593","CLASSIFICATION_TYPE":"U","TLE_LINE2":"2 52996  53.2172 343.2561 0011015  50.6717  62.4252 15.82747593  1307","REV_AT_EPOCH":"130"},{"COUNTRY_CODE":"US","RCS_SIZE":null,"GP_ID":"208137729","MEAN_MOTION_DDOT":"0.0000000000000","SEMIMAJOR_AXIS":"6700.595","MEAN_MOTION_DOT":"-0.01019985","OBJECT_NAME":"STARLINK-4301","PERIAPSIS":"315.405","INCLINATION":"53.2172","ELEMENT_SET_NO":"999","MEAN_MOTION":"15.82824402","TLE_LINE2":"2 52997  53.2172 343.2530 0010529  50.7696  64.1476 15.82824402  1302","CLASSIFICATION_TYPE":"U","REV_AT_EPOCH":"130","APOAPSIS":"329.515","OBJECT_ID":"2022-076M","EPOCH":"2022-07-14T22:00:00.999936","OBJECT_TYPE":"PAYLOAD","EPHEMERIS_TYPE":"0","TLE_LINE1":"1 52997U 22076M   22195.91667824 -.01019985  00000-0 -52587-2 0  9995","CENTER_NAME":"EARTH","REF_FRAME":"TEME","ECCENTRICITY":"0.00105290","RA_OF_ASC_NODE":"343.2530","BSTAR":"-0.00525870000000","TIME_SYSTEM":"UTC","LAUNCH_DATE":"2022-07-07","DECAY_DATE":null,"MEAN_ANOMALY":"64.1476","SITE":"AFETR","NORAD_CAT_ID":"52997","MEAN_ELEMENT_THEORY":"SGP4","PERIOD":"90.977","FILE":"3513976","ARG_OF_PERICENTER":"50.7696"},{"BSTAR":"-0.00527080000000","LAUNCH_DATE":"2022-07-07","TIME_SYSTEM":"UTC","ECCENTRICITY":"0.00102980","RA_OF_ASC_NODE":"343.2548","SITE":"AFETR","NORAD_CAT_ID":"52998","MEAN_ELEMENT_THEORY":"SGP4","PERIOD":"90.979","FILE":"3513976","ARG_OF_PERICENTER":"49.4701","DECAY_DATE":null,"MEAN_ANOMALY":"64.3570","SEMIMAJOR_AXIS":"6700.725","OBJECT_NAME":"STARLINK-4254","PERIAPSIS":"315.689","INCLINATION":"53.2172","MEAN_MOTION_DOT":"-0.01019826","GP_ID":"208137572","RCS_SIZE":null,"COUNTRY_CODE":"US","MEAN_MOTION_DDOT":"0.0000000000000","EPOCH":"2022-07-14T22:00:00.999936","OBJECT_ID":"2022-076N","REF_FRAME":"TEME","OBJECT_TYPE":"PAYLOAD","EPHEMERIS_TYPE":"0","TLE_LINE1":"1 52998U 22076N   22195.91667824 -.01019826  00000-0 -52708-2 0  9995","CENTER_NAME":"EARTH","REV_AT_EPOCH":"130","MEAN_MOTION":"15.82778402","ELEMENT_SET_NO":"999","TLE_LINE2":"2 52998  53.2172 343.2548 0010298  49.4701  64.3570 15.82778402  1302","CLASSIFICATION_TYPE":"U","APOAPSIS":"329.490"},{"MEAN_MOTION_DDOT":"0.0000000000000","GP_ID":"208137831","COUNTRY_CODE":"US","RCS_SIZE":null,"PERIAPSIS":"315.267","OBJECT_NAME":"STARLINK-4217","INCLINATION":"53.2172","MEAN_MOTION_DOT":"-0.01020213","SEMIMAJOR_AXIS":"6700.508","APOAPSIS":"329.479","REV_AT_EPOCH":"130","ELEMENT_SET_NO":"999","MEAN_MOTION":"15.82855237","CLASSIFICATION_TYPE":"U","TLE_LINE2":"2 52999  53.2172 343.2517 0010605  49.9797  65.6610 15.82855237  1302","REF_FRAME":"TEME","OBJECT_TYPE":"PAYLOAD","TLE_LINE1":"1 52999U 22076P   22195.91667824 -.01020213  00000-0 -52518-2 0  9997","EPHEMERIS_TYPE":"0","CENTER_NAME":"EARTH","EPOCH":"2022-07-14T22:00:00.999936","OBJECT_ID":"2022-076P","ECCENTRICITY":"0.00106050","RA_OF_ASC_NODE":"343.2517","LAUNCH_DATE":"2022-07-07","TIME_SYSTEM":"UTC","BSTAR":"-0.00525180000000","MEAN_ANOMALY":"65.6610","DECAY_DATE":null,"FILE":"3513976","ARG_OF_PERICENTER":"49.9797","SITE":"AFETR","NORAD_CAT_ID":"52999","MEAN_ELEMENT_THEORY":"SGP4","PERIOD":"90.975"},{"PERIOD":"90.978","SITE":"AFETR","NORAD_CAT_ID":"53000","MEAN_ELEMENT_THEORY":"SGP4","ARG_OF_PERICENTER":"49.2596","FILE":"3513976","DECAY_DATE":null,"MEAN_ANOMALY":"64.9222","BSTAR":"-0.00526760000000","LAUNCH_DATE":"2022-07-07","TIME_SYSTEM":"UTC","RA_OF_ASC_NODE":"343.2542","ECCENTRICITY":"0.00101690","EPOCH":"2022-07-14T22:00:00.999936","OBJECT_ID":"2022-076Q","REF_FRAME":"TEME","TLE_LINE1":"1 53000U 22076Q   22195.91667824 -.01019823  00000-0 -52676-2 0  9991","EPHEMERIS_TYPE":"0","CENTER_NAME":"EARTH","OBJECT_TYPE":"PAYLOAD","REV_AT_EPOCH":"130","CLASSIFICATION_TYPE":"U","TLE_LINE2":"2 53000  53.2172 343.2542 0010169  49.2596  64.9222 15.82794322  1307","MEAN_MOTION":"15.82794322","ELEMENT_SET_NO":"999","APOAPSIS":"329.359","SEMIMAJOR_AXIS":"6700.680","INCLINATION":"53.2172","PERIAPSIS":"315.731","OBJECT_NAME":"STARLINK-4194","MEAN_MOTION_DOT":"-0.01019823","GP_ID":"208138034","COUNTRY_CODE":"US","RCS_SIZE":null,"MEAN_MOTION_DDOT":"0.0000000000000"},{"MEAN_ANOMALY":"67.0184","DECAY_DATE":null,"FILE":"3513976","ARG_OF_PERICENTER":"48.9689","SITE":"AFETR","NORAD_CAT_ID":"53001","MEAN_ELEMENT_THEORY":"SGP4","PERIOD":"90.974","ECCENTRICITY":"0.00100360","RA_OF_ASC_NODE":"343.2510","TIME_SYSTEM":"UTC","LAUNCH_DATE":"2022-07-07","BSTAR":"-0.00525200000000","APOAPSIS":"329.051","ELEMENT_SET_NO":"999","MEAN_MOTION":"15.82871756","CLASSIFICATION_TYPE":"U","TLE_LINE2":"2 53001  53.2172 343.2510 0010036  48.9689  67.0184 15.82871756  1303","REV_AT_EPOCH":"130","OBJECT_TYPE":"PAYLOAD","CENTER_NAME":"EARTH","TLE_LINE1":"1 53001U 22076R   22195.91667824 -.01020341  00000-0 -52520-2 0  9997","EPHEMERIS_TYPE":"0","REF_FRAME":"TEME","OBJECT_ID":"2022-076R","EPOCH":"2022-07-14T22:00:00.999936","MEAN_MOTION_DDOT":"0.0000000000000","COUNTRY_CODE":"US","RCS_SIZE":null,"GP_ID":"208137365","MEAN_MOTION_DOT":"-0.01020341","INCLINATION":"53.2172","PERIAPSIS":"315.601","OBJECT_NAME":"STARLINK-4190","SEMIMAJOR_AXIS":"6700.461"},{"MEAN_MOTION_DDOT":"0.0000000000000","RCS_SIZE":null,"COUNTRY_CODE":"US","GP_ID":"208137935","MEAN_MOTION_DOT":"-0.01019851","PERIAPSIS":"315.302","OBJECT_NAME":"STARLINK-4121","INCLINATION":"53.2172","SEMIMAJOR_AXIS":"6700.637","APOAPSIS":"329.703","CLASSIFICATION_TYPE":"U","TLE_LINE2":"2 53002  53.2172 343.2535 0010746  50.5979  63.9500 15.82809347  1304","MEAN_MOTION":"15.82809347","ELEMENT_SET_NO":"999","REV_AT_EPOCH":"130","EPHEMERIS_TYPE":"0","TLE_LINE1":"1 53002U 22076S   22195.91667824 -.01019851  00000-0 -52603-2 0  9994","CENTER_NAME":"EARTH","OBJECT_TYPE":"PAYLOAD","REF_FRAME":"TEME","OBJECT_ID":"2022-076S","EPOCH":"2022-07-14T22:00:00.999936","ECCENTRICITY":"0.00107460","RA_OF_ASC_NODE":"343.2535","TIME_SYSTEM":"UTC","LAUNCH_DATE":"2022-07-07","BSTAR":"-0.00526030000000","MEAN_ANOMALY":"63.9500","DECAY_DATE":null,"ARG_OF_PERICENTER":"50.5979","FILE":"3513976","PERIOD":"90.977","NORAD_CAT_ID":"53002","SITE":"AFETR","MEAN_ELEMENT_THEORY":"SGP4"},{"FILE":"3513976","ARG_OF_PERICENTER":"45.9987","MEAN_ELEMENT_THEORY":"SGP4","SITE":"AFETR","NORAD_CAT_ID":"53003","PERIOD":"90.972","MEAN_ANOMALY":"70.7141","DECAY_DATE":null,"LAUNCH_DATE":"2022-07-07","TIME_SYSTEM":"UTC","BSTAR":"-0.00524380000000","ECCENTRICITY":"0.00106040","RA_OF_ASC_NODE":"343.2497","REF_FRAME":"TEME","OBJECT_TYPE":"PAYLOAD","CENTER_NAME":"EARTH","TLE_LINE1":"1 53003U 22076T   22195.91667824 -.01020874  00000-0 -52438-2 0  9998","EPHEMERIS_TYPE":"0","EPOCH":"2022-07-14T22:00:00.999936","OBJECT_ID":"2022-076T","APOAPSIS":"329.345","REV_AT_EPOCH":"130","MEAN_MOTION":"15.82902391","ELEMENT_SET_NO":"999","CLASSIFICATION_TYPE":"U","TLE_LINE2":"2 53003  53.2172 343.2497 0010604  45.9987  70.7141 15.82902391  1302","INCLINATION":"53.2172","PERIAPSIS":"315.135","OBJECT_NAME":"STARLINK-4255","MEAN_MOTION_DOT":"-0.01020874","SEMIMAJOR_AXIS":"6700.375","MEAN_MOTION_DDOT":"0.0000000000000","GP_ID":"208137468","COUNTRY_CODE":"US","RCS_SIZE":null}];
